ACS3                    
1 59588U 24077B   24281.14164727  .00007074  00000+0  79774-2 0  9997
2 59588  97.4436 323.4192 0050055 184.3614 175.7109 13.70255044 22719
